GLOBALSTAR M023         
1 25621U 99004A   25083.03121417  .00000034  00000+0  76379-3 0  9996
2 25621  52.0117 312.7471 0009173 302.4297 205.3657 12.62503410204970
GLOBALSTAR M040         
1 25622U 99004B   25083.37437074 -.00000052  00000+0  29123-3 0  9999
2 25622  51.9927 315.7298 0000745 144.3713  26.9032 12.62005325204549
GLOBALSTAR M036         
1 25623U 99004C   25083.37260863 -.00000022  00000+0  88695-3 0  9996
2 25623  51.9945 103.8728 0011084 249.7878 123.0634 11.86591934168912
GLOBALSTAR M038         
1 25624U 99004D   25083.37547613 -.00000041  00000+0  44310-3 0  9995
2 25624  51.9989 315.8223 0001112 218.4752 313.6119 12.32523045191912
GLOBALSTAR M022         
1 25649U 99012A   25083.64186870 -.00000056  00000+0  36802-3 0  9998
2 25649  52.0026 160.7349 0002171  17.4003 129.9686 12.02497807166205
GLOBALSTAR M041         
1 25650U 99012B   25083.60528866 -.00000057  00000+0  36117-3 0  9991
2 25650  52.0041  39.7057 0001667 137.8068 222.2897 11.96669256168150
GLOBALSTAR M046         
1 25651U 99012C   25083.39941288  .00000005  00000+0  10320-2 0  9994
2 25651  52.0030 114.6214 0002331  88.7311  43.2659 12.09406816173408
GLOBALSTAR M037         
1 25652U 99012D   25083.40143958 -.00000036  00000+0  37819-3 0  9993
2 25652  51.9994  82.2647 0001999   6.6094 139.5540 12.62440319200563
